OBJECT_NAME,OBJECT_ID,EPOCH,MEAN_MOTION,ECCENTRICITY,INCLINATION,RA_OF_ASC_NODE,ARG_OF_PERICENTER,MEAN_ANOMALY,EPHEMERIS_TYPE,CLASSIFICATION_TYPE,NORAD_CAT_ID,ELEMENT_SET_NO,REV_AT_EPOCH,BSTAR,MEAN_MOTION_DOT,MEAN_MOTION_DDOT
LEMUR-2-FINNIAN,2025-276DX,2026-07-19T18:08:46.805856,15.00644953,.00070806,97.5356,270.7347,342.5290,17.5690,0,U,66782,999,2488,.10688527E-3,.1294E-4,0
LEMUR-2-STARLIGHT,2025-276DY,2026-07-20T03:22:57.723168,14.99392316,.00146138,97.5235,270.6546,32.3707,327.8410,0,U,66783,999,3513,.31682306E-3,.3829E-4,0
LEMUR-2-TARTIFLETTE,2025-276DZ,2026-07-20T03:20:44.447712,14.99374313,.00138445,97.5233,270.6609,41.0576,319.1687,0,U,66784,999,3513,.30427804E-3,.3673E-4,0
LEMUR-2-VUKASIN,2025-276EA,2026-07-20T10:32:28.852512,15.00572193,.00022234,97.5203,271.3173,36.6135,323.5241,0,U,66785,999,3513,.21008113E-3,.2594E-4,0
LEMUR-2-HOTSPUR-TOM,2025-276EB,2026-07-20T04:49:15.901536,14.99271112,.00135984,97.5212,270.6925,32.6482,327.5580,0,U,66786,999,3507,.26301647E-3,.3158E-4,0
LEMUR-2-MYRA,2025-276EC,2026-07-20T03:18:04.328640,15.00621723,.00185732,97.5221,270.9458,39.1220,321.1343,0,U,66787,999,3515,.26939967E-3,.3359E-4,0
LEMUR-2 FIKRETDENGIZ,2026-004A,2026-07-20T00:11:07.688832,14.88536708,.00098467,97.8034,199.0680,42.2614,317.9360,0,U,67363,999,2816,.2593724E-3,.2359E-4,0
TWILIGHT-1 OBJECT B,2026-004B,2026-07-20T10:49:04.899360,14.87803916,.00093515,97.8078,199.5022,30.6390,329.5370,0,U,67364,999,2823,.10993205E-3,.95E-5,0
LEMUR-2-MARIO-SOUSA,2026-004C,2026-07-19T23:41:08.600640,14.88748918,.00094881,97.8007,199.0425,43.7275,316.4692,0,U,67365,999,2817,.23305677E-3,.2125E-4,0
LEMUR-2-SONNENBLUME,2026-004E,2026-07-19T23:46:32.460672,14.88467068,.00091245,97.8003,199.0165,44.7510,315.4441,0,U,67367,999,2817,.14903589E-3,.133E-4,0
LEMUR-2-WOBLER,2026-004F,2026-07-20T10:47:28.708512,14.88719627,.00090746,97.8057,199.6250,35.0859,325.0954,0,U,67368,999,2824,.22582323E-3,.2056E-4,0
LEMUR-2-GRAM-E-SUE,2026-004H,2026-07-20T10:36:43.207200,14.88603335,.00082966,97.7991,199.4781,46.5776,313.6130,0,U,67370,999,2824,.14352712E-3,.1283E-4,0
LEMUR-2-KATIE,2026-004AA,2026-07-19T23:46:11.169984,14.90273384,.00030448,97.8049,199.6005,21.7882,338.3465,0,U,67387,999,2819,.24030914E-3,.2278E-4,0
LEMUR-2-HCS-BAZUS,2026-004AB,2026-07-20T06:10:30.941184,14.90282861,.00025198,97.8038,199.8419,22.6097,337.5231,0,U,67388,999,2823,.21400585E-3,.2023E-4,0
